satname,norad_id,inclination_deg,eccentricity,mean_motion_rev_per_day,perigee_km,apogee_km,l1,l2
STARLINK-1570,46059,53.1613,0.0001077,15.31697722,470.00916104979115,471.48441061726044,1 46059U 20055AJ  26165.90286928  .00001994  00000+0  75991-4 0  9997,2 46059  53.1613  21.6828 0001077  93.0527 267.0597 15.31697722323921
STARLINK-1572,46060,53.1618,0.0001251,15.30184489,474.4040227229689,476.1187429983602,1 46060U 20055AK  26165.91766566  .00000437  00000+0  26883-4 0  9998,2 46060  53.1618  22.5002 0001251  95.2882 264.8262 15.30184489323928
STARLINK-1573,46061,53.1602,9.06e-05,15.31733654,470.01917707280336,471.2601754065381,1 46061U 20055AL  26165.88885657  .00004813  00000+0  16659-3 0  9999,2 46061  53.1602  21.7159 0000906 109.5144 250.5956 15.31733654323963
STARLINK-1577,46063,53.1616,0.000123,15.31703285,469.88779216313833,471.5726134950346,1 46063U 20055AN  26165.91684441 -.00000104  00000+0  84057-5 0  9992,2 46063  53.1616  21.5800 0001230  88.2428 271.8714 15.31703285323965
STARLINK-1583,46064,53.162,0.0001165,15.31708493,469.9167869310659,471.51256937207563,1 46064U 20055AP  26165.86563976  .00002455  00000+0  90837-4 0  9998,2 46064  53.1620  22.3199 0001165  76.9899 283.1232 15.31708493323949
STARLINK-1536,46070,53.1579,8.94e-05,15.31705648,470.11087078507717,471.3354469814849,1 46070U 20055AV  26165.86692912  .00003873  00000+0  13648-3 0  9997,2 46070  53.1579   9.7004 0000894  96.2745 263.8358 15.31705648324120
STARLINK-1542,46073,53.1606,0.0001242,15.31706728,469.8693114492735,471.57056751303935,1 46073U 20055AY  26165.89130342  .00008427  00000+0  28294-3 0  9990,2 46073  53.1606  12.5552 0001242  82.5142 277.6001 15.31706728324073
STARLINK-1549,46074,53.0492,0.0002272,15.29914809,474.509455526696,477.62400570188765,1 46074U 20055AZ  26165.86034011  .00039797  00000+0  13604-2 0  9996,2 46074  53.0492   9.8790 0002272 150.1294 209.9835 15.29914809324096
STARLINK-1551,46075,53.1573,0.0001009,15.31670361,470.13728836338305,471.5194095708048,1 46075U 20055BA  26166.00004630  .00056696  00000+0  18266-2 0  9994,2 46075  53.1573   9.0191 0001009  82.7934 341.3248 15.31670361  5879
STARLINK-1552,46076,53.1604,0.0001118,15.31702443,469.96700914556095,471.4984164133384,1 46076U 20055BB  26165.84390120  .00004670  00000+0  16214-3 0  9995,2 46076  53.1604   9.3287 0001118  98.3484 261.7644 15.31702443324100
STARLINK-1559,46077,53.0253,1.82e-05,15.38995705,448.95358352651874,449.2020941466517,1 46077U 20055BC  26165.74423193  .00037648  00000+0  96596-3 0  9994,2 46077  53.0253 338.8374 0000182 121.0778 239.0243 15.38995705324483
STARLINK-1566,46079,53.1608,0.0001107,15.3171003,469.95192910714013,471.46826385430086,1 46079U 20055BE  26165.84853687  .00002582  00000+0  94906-4 0  9995,2 46079  53.1608   9.1605 0001107  95.6514 264.4614 15.31710030324121
STARLINK-1568,46080,53.0593,0.0002848,15.54895663,400.5248282421335,404.3870539813897,1 46080U 20055BF  26165.62886346  .00044267  00000+0  65443-3 0  9990,2 46080  53.0593 287.5205 0002848  63.5787 296.5515 15.54895663325232
STARLINK-1578,46082,53.16,0.0001135,15.31705764,469.94546750667814,471.5001586842518,1 46082U 20055BH  26165.85293190  .00003870  00000+0  13639-3 0  9991,2 46082  53.1600   9.6544 0001135 100.0024 260.1106 15.31705764324118
STARLINK-1579,46083,53.1598,0.0001205,15.31705513,469.8982736111757,471.54884900645084,1 46083U 20055BJ  26165.83922836  .00005403  00000+0  18570-3 0  9999,2 46083  53.1598   9.2549 0001205  87.6945 272.4195 15.31705513324112
STARLINK-1622,46128,53.0134,0.000552,15.8786563,304.5770615050815,311.9588525776562,1 46128U 20057M   26166.00004630  .00224516  00000+0  79580-3 0  9990,2 46128  53.0134  99.7435 0005520 104.2970 111.7402 15.87865630  5966
STARLINK-1623,46129,53.0383,0.0005765,15.76697203,335.9330318033617,343.6788199969242,1 46129U 20057N   26166.00004630  .00006019  00000+0  40814-4 0  9996,2 46129  53.0383 138.5283 0005765  60.5015  78.5213 15.76697203  6004
STARLINK-1596,46141,53.0324,0.0006686,15.60927331,380.4553377574166,389.49897400666214,1 46141U 20057AA  26165.17372478  .00198276  00000+0  22722-2 0  9998,2 46141  53.0324 125.8546 0006686  57.9644 302.2017 15.60927331322264
STARLINK-1597,46142,53.0379,0.0005253,15.76202528,337.6817503272696,344.74109778158163,1 46142U 20057AB  26165.76335361  .00114161  00000+0  70785-3 0  9998,2 46142  53.0379 179.4711 0005253  46.7971 313.3486 15.76202528321557
STARLINK-1606,46144,53.0306,0.0004039,16.00349626,270.76317419684256,276.1363259735617,1 46144U 20057AD  26165.89669490  .00501292  12086-3  94072-3 0  9998,2 46144  53.0306 130.5857 0004039 200.4720 159.6148 16.00349626310508
STARLINK-1608,46146,53.1574,0.0005495,15.36667116,452.2178359921254,459.72852307943504,1 46146U 20057AF  26165.87779703  .00042973  00000+0  11863-2 0  9998,2 46146  53.1574 216.2443 0005495   1.2273 358.8743 15.36667116321082
STARLINK-1667,46155,53.0091,0.0004398,15.95589963,283.7398390205444,289.60220415633376,1 46155U 20057AQ  26166.00004630  .00340036  57041-4  83431-3 0  9998,2 46155  53.0091  98.5705 0004398 120.7324 289.9464 15.95589963  5971
STARLINK-1545,46156,53.035,0.0001825,15.8957529,302.25334979551644,304.6921373519208,1 46156U 20057AR  26166.00004630  .00252357  00000+0  81907-3 0  9991,2 46156  53.0350 135.1844 0001825 161.0605  86.5764 15.89575290  6015
STARLINK-1595,46159,53.0393,0.0006191,15.73822329,343.820328780037,352.14861238491176,1 46159U 20057AU  26165.23336179  .00106064  00000+0  73008-3 0  9990,2 46159  53.0393 184.9742 0006191  37.9388 322.2065 15.73822329322694
STARLINK-1598,46160,53.0413,0.0001642,15.73438606,347.9733745683143,350.182591968819,1 46160U 20057AV  26165.27238888  .00094619  00000+0  66407-3 0  9991,2 46160  53.0413 170.9518 0001642 349.3085  10.7897 15.73438606322889
STARLINK-1626,46167,53.0378,0.0001703,15.76988238,337.83543947615,340.12328930986223,1 46167U 20057BC  26165.75506783  .00110218  00000+0  66099-3 0  9994,2 46167  53.0378 177.8387 0001703  72.3515 287.7691 15.76988238321583
STARLINK-1633,46171,53.0317,0.0002013,15.85758909,312.8415206358559,315.5358509569578,1 46171U 20057BG  26166.00004630  .00178225  00000+0  70516-3 0  9993,2 46171  53.0317 137.2355 0002013 146.7577 327.0760 15.85758909  6018
STARLINK-1635,46172,53.0319,0.0002279,15.93230113,291.7301461887928,294.77096463655016,1 46172U 20057BH  26166.00004630  .00295562  44534-4  82446-3 0  9998,2 46172  53.0319 134.7672 0002279 164.6998  29.9778 15.93230113  5900
